OBJECT_NAME,OBJECT_ID,EPOCH,MEAN_MOTION,ECCENTRICITY,INCLINATION,RA_OF_ASC_NODE,ARG_OF_PERICENTER,MEAN_ANOMALY,EPHEMERIS_TYPE,CLASSIFICATION_TYPE,NORAD_CAT_ID,ELEMENT_SET_NO,REV_AT_EPOCH,BSTAR,MEAN_MOTION_DOT,MEAN_MOTION_DDOT
LEMUR-2-STARLIGHT,2025-276DY,2026-06-17T02:28:42.611808,14.99040378,.001517,97.5267,238.7459,128.2634,231.9956,0,U,66783,999,3018,.32554E-3,.3901E-4,0
LEMUR-2-TARTIFLETTE,2025-276DZ,2026-06-17T10:27:07.085952,14.99071713,.001408,97.5266,239.0726,133.6482,226.5911,0,U,66784,999,3023,.30655E-3,.3672E-4,0
LEMUR-2-VUKASIN,2025-276EA,2026-06-17T10:17:40.676928,15.00370036,.0006002,97.5311,239.3626,121.7435,238.4374,0,U,66785,999,3018,.35548E-3,.4408E-4,0
LEMUR-2-HOTSPUR-TOM,2025-276EB,2026-06-17T03:51:56.302848,14.98961077,.0015497,97.5263,238.7889,127.8316,232.4312,0,U,66786,999,3012,.37583E-3,.4504E-4,0
LEMUR-2-MYRA,2025-276EC,2026-06-17T03:02:48.804000,15.00244960,.0016588,97.5216,239.0099,141.6196,218.6212,0,U,66787,999,3020,.49481E-3,.6154E-4,0
LEMUR-2 FIKRETDENGIZ,2026-004A,2026-06-17T12:54:17.749152,14.88327000,.0010129,97.8015,167.0903,132.0117,228.1964,0,U,67363,999,2333,.37175E-3,.3388E-4,0
TWILIGHT-1 OBJECT B,2026-004B,2026-06-16T22:58:02.684064,14.87701698,.0009934,97.8061,166.5337,125.0302,235.1847,0,U,67364,999,2325,.17619E-3,.1552E-4,0
LEMUR-2-MARIO-SOUSA,2026-004C,2026-06-17T06:03:26.306784,14.88513330,.0009667,97.7986,166.8057,133.5190,226.6832,0,U,67365,999,2330,.34021E-3,.311E-4,0
LEMUR-2-SONNENBLUME,2026-004E,2026-06-17T06:01:08.128992,14.88315759,.0009178,97.7981,166.7886,134.9568,225.2395,0,U,67367,999,2330,.21389E-3,.1925E-4,0
LEMUR-2-WOBLER,2026-004F,2026-06-17T12:18:56.755296,14.88518299,.0009622,97.8037,167.1694,124.7531,235.4593,0,U,67368,999,2334,.28227E-3,.2571E-4,0
LEMUR-2-GRAM-E-SUE,2026-004H,2026-06-17T12:05:29.563296,14.88472174,.0008205,97.7970,167.0529,134.7964,225.3921,0,U,67370,999,2334,.17207E-3,.1544E-4,0
LEMUR-2-KATIE,2026-004AA,2026-06-16T22:53:04.871904,14.90048007,.0004864,97.8033,166.9697,93.5324,266.6450,0,U,67387,999,2327,.32781E-3,.311E-4,0
LEMUR-2-HCS-BAZUS,2026-004AB,2026-06-17T11:45:19.646208,14.90073880,.000445,97.8020,167.4801,89.6378,270.5350,0,U,67388,999,2335,.46017E-3,.4392E-4,0
